[{"OBJECT_NAME":"SL-8 R/B","OBJECT_ID":"1991-006B","EPOCH":"2026-04-12T02:28:46.180128","MEAN_MOTION":13.77500408,"ECCENTRICITY":0.00211147,"INCLINATION":82.9419,"RA_OF_ASC_NODE":145.2006,"ARG_OF_PERICENTER":303.5777,"MEAN_ANOMALY":85.6365,"EPHEMERIS_TYPE":0,"CLASSIFICATION_TYPE":"U","NORAD_CAT_ID":21088,"ELEMENT_SET_NO":999,"REV_AT_EPOCH":76867,"BSTAR":9.638415e-5,"MEAN_MOTION_DOT":1.11e-6,"MEAN_MOTION_DDOT":0},{"OBJECT_NAME":"OKEAN-3","OBJECT_ID":"1991-039A","EPOCH":"2026-04-11T23:47:04.573824","MEAN_MOTION":15.05007157,"ECCENTRICITY":0.0013614,"INCLINATION":82.5154,"RA_OF_ASC_NODE":304.5709,"ARG_OF_PERICENTER":212.6252,"MEAN_ANOMALY":147.4135,"EPHEMERIS_TYPE":0,"CLASSIFICATION_TYPE":"U","NORAD_CAT_ID":21397,"ELEMENT_SET_NO":999,"REV_AT_EPOCH":87004,"BSTAR":0.00011031679,"MEAN_MOTION_DOT":1.596e-5,"MEAN_MOTION_DDOT":0},{"OBJECT_NAME":"COSMOS 2151","OBJECT_ID":"1991-042A","EPOCH":"2026-04-12T07:12:28.065312","MEAN_MOTION":15.002594,"ECCENTRICITY":0.00110285,"INCLINATION":82.497,"RA_OF_ASC_NODE":51.2469,"ARG_OF_PERICENTER":311.9955,"MEAN_ANOMALY":48.0329,"EPHEMERIS_TYPE":0,"CLASSIFICATION_TYPE":"U","NORAD_CAT_ID":21422,"ELEMENT_SET_NO":999,"REV_AT_EPOCH":86823,"BSTAR":0.0001017957,"MEAN_MOTION_DOT":1.302e-5,"MEAN_MOTION_DDOT":0},{"OBJECT_NAME":"SL-14 R/B","OBJECT_ID":"1991-042B","EPOCH":"2026-04-12T04:23:00.852000","MEAN_MOTION":14.81863751,"ECCENTRICITY":0.0018276,"INCLINATION":82.4959,"RA_OF_ASC_NODE":188.7849,"ARG_OF_PERICENTER":128.22,"MEAN_ANOMALY":232.0663,"EPHEMERIS_TYPE":0,"CLASSIFICATION_TYPE":"U","NORAD_CAT_ID":21423,"ELEMENT_SET_NO":999,"REV_AT_EPOCH":85803,"BSTAR":3.2388844e-5,"MEAN_MOTION_DOT":2.8e-6,"MEAN_MOTION_DDOT":0},{"OBJECT_NAME":"ERS-1","OBJECT_ID":"1991-050A","EPOCH":"2026-04-12T01:29:43.412928","MEAN_MOTION":14.39476039,"ECCENTRICITY":0.00331282,"INCLINATION":98.7849,"RA_OF_ASC_NODE":121.1323,"ARG_OF_PERICENTER":103.0096,"MEAN_ANOMALY":257.4793,"EPHEMERIS_TYPE":0,"CLASSIFICATION_TYPE":"U","NORAD_CAT_ID":21574,"ELEMENT_SET_NO":999,"REV_AT_EPOCH":82053,"BSTAR":8.9016503e-5,"MEAN_MOTION_DOT":2.33e-6,"MEAN_MOTION_DDOT":0},{"OBJECT_NAME":"ARIANE 40 R/B","OBJECT_ID":"1991-050F","EPOCH":"2026-04-12T04:08:31.007904","MEAN_MOTION":14.42918889,"ECCENTRICITY":0.00026064,"INCLINATION":98.1945,"RA_OF_ASC_NODE":153.1409,"ARG_OF_PERICENTER":357.91,"MEAN_ANOMALY":2.2079,"EPHEMERIS_TYPE":0,"CLASSIFICATION_TYPE":"U","NORAD_CAT_ID":21610,"ELEMENT_SET_NO":999,"REV_AT_EPOCH":82382,"BSTAR":6.9039235e-5,"MEAN_MOTION_DOT":1.89e-6,"MEAN_MOTION_DDOT":0},{"OBJECT_NAME":"INTERCOSMOS 25","OBJECT_ID":"1991-086A","EPOCH":"2026-04-12T06:03:33.268032","MEAN_MOTION":12.12110702,"ECCENTRICITY":0.14860431,"INCLINATION":82.5994,"RA_OF_ASC_NODE":289.7122,"ARG_OF_PERICENTER":44.6101,"MEAN_ANOMALY":326.5325,"EPHEMERIS_TYPE":0,"CLASSIFICATION_TYPE":"U","NORAD_CAT_ID":21819,"ELEMENT_SET_NO":999,"REV_AT_EPOCH":50075,"BSTAR":0.00014625789,"MEAN_MOTION_DOT":7.75e-6,"MEAN_MOTION_DDOT":0},{"OBJECT_NAME":"SL-8 R/B","OBJECT_ID":"1992-008B","EPOCH":"2026-04-12T07:24:12.353184","MEAN_MOTION":13.759702,"ECCENTRICITY":0.00354406,"INCLINATION":82.9257,"RA_OF_ASC_NODE":242.7654,"ARG_OF_PERICENTER":42.5832,"MEAN_ANOMALY":335.9948,"EPHEMERIS_TYPE":0,"CLASSIFICATION_TYPE":"U","NORAD_CAT_ID":21876,"ELEMENT_SET_NO":999,"REV_AT_EPOCH":71404,"BSTAR":2.2156563e-5,"MEAN_MOTION_DOT":3.7e-7,"MEAN_MOTION_DDOT":0},{"OBJECT_NAME":"SL-8 R/B","OBJECT_ID":"1992-020B","EPOCH":"2026-04-12T03:40:16.678848","MEAN_MOTION":13.75550223,"ECCENTRICITY":0.00285161,"INCLINATION":82.9278,"RA_OF_ASC_NODE":128.9109,"ARG_OF_PERICENTER":201.7237,"MEAN_ANOMALY":222.9758,"EPHEMERIS_TYPE":0,"CLASSIFICATION_TYPE":"U","NORAD_CAT_ID":21938,"ELEMENT_SET_NO":999,"REV_AT_EPOCH":70573,"BSTAR":-3.3133067e-5,"MEAN_MOTION_DOT":-1.7e-7,"MEAN_MOTION_DDOT":0},{"OBJECT_NAME":"USA 81","OBJECT_ID":"1992-023A","EPOCH":"2026-04-12T02:53:33.182016","MEAN_MOTION":14.32379209,"ECCENTRICITY":0.00012852,"INCLINATION":85.0034,"RA_OF_ASC_NODE":112.144,"ARG_OF_PERICENTER":78.988,"MEAN_ANOMALY":281.1457,"EPHEMERIS_TYPE":0,"CLASSIFICATION_TYPE":"U","NORAD_CAT_ID":21949,"ELEMENT_SET_NO":999,"REV_AT_EPOCH":9957,"BSTAR":4.7867459e-5,"MEAN_MOTION_DOT":1.49e-6,"MEAN_MOTION_DDOT":0},{"OBJECT_NAME":"COSMOS 2219","OBJECT_ID":"1992-076A","EPOCH":"2026-04-12T06:18:49.995360","MEAN_MOTION":14.14088255,"ECCENTRICITY":0.00174386,"INCLINATION":71.0591,"RA_OF_ASC_NODE":307.8876,"ARG_OF_PERICENTER":154.8774,"MEAN_ANOMALY":205.3201,"EPHEMERIS_TYPE":0,"CLASSIFICATION_TYPE":"U","NORAD_CAT_ID":22219,"ELEMENT_SET_NO":999,"REV_AT_EPOCH":72312,"BSTAR":4.6137958e-5,"MEAN_MOTION_DOT":4.1e-7,"MEAN_MOTION_DDOT":0},{"OBJECT_NAME":"SL-16 R/B","OBJECT_ID":"1992-076B","EPOCH":"2026-04-12T07:00:49.053888","MEAN_MOTION":14.16864728,"ECCENTRICITY":0.00113377,"INCLINATION":70.9976,"RA_OF_ASC_NODE":117.5924,"ARG_OF_PERICENTER":35.5294,"MEAN_ANOMALY":335.8802,"EPHEMERIS_TYPE":0,"CLASSIFICATION_TYPE":"U","NORAD_CAT_ID":22220,"ELEMENT_SET_NO":999,"REV_AT_EPOCH":72659,"BSTAR":0.00015835137,"MEAN_MOTION_DOT":2.7e-6,"MEAN_MOTION_DDOT":0},{"OBJECT_NAME":"COSMOS 2221","OBJECT_ID":"1992-080A","EPOCH":"2026-04-12T06:36:20.726496","MEAN_MOTION":14.96352675,"ECCENTRICITY":0.0015651,"INCLINATION":82.5025,"RA_OF_ASC_NODE":246.8997,"ARG_OF_PERICENTER":81.2646,"MEAN_ANOMALY":279.0348,"EPHEMERIS_TYPE":0,"CLASSIFICATION_TYPE":"U","NORAD_CAT_ID":22236,"ELEMENT_SET_NO":999,"REV_AT_EPOCH":78581,"BSTAR":0.00013616685,"MEAN_MOTION_DOT":1.57e-5,"MEAN_MOTION_DDOT":0},{"OBJECT_NAME":"SL-16 R/B","OBJECT_ID":"1992-093B","EPOCH":"2026-04-12T05:41:21.677280","MEAN_MOTION":14.15454165,"ECCENTRICITY":0.00065416,"INCLINATION":71.0204,"RA_OF_ASC_NODE":293.8417,"ARG_OF_PERICENTER":260.5901,"MEAN_ANOMALY":99.4482,"EPHEMERIS_TYPE":0,"CLASSIFICATION_TYPE":"U","NORAD_CAT_ID":22285,"ELEMENT_SET_NO":999,"REV_AT_EPOCH":71790,"BSTAR":-8.0674839e-5,"MEAN_MOTION_DOT":-2.05e-6,"MEAN_MOTION_DDOT":0},{"OBJECT_NAME":"COSMOS 2228","OBJECT_ID":"1992-094A","EPOCH":"2026-04-12T06:27:24.977376","MEAN_MOTION":14.97372515,"ECCENTRICITY":0.00178982,"INCLINATION":82.5205,"RA_OF_ASC_NODE":205.162,"ARG_OF_PERICENTER":184.5113,"MEAN_ANOMALY":175.5952,"EPHEMERIS_TYPE":0,"CLASSIFICATION_TYPE":"U","NORAD_CAT_ID":22286,"ELEMENT_SET_NO":999,"REV_AT_EPOCH":78108,"BSTAR":0.00013447984,"MEAN_MOTION_DOT":1.593e-5,"MEAN_MOTION_DDOT":0},{"OBJECT_NAME":"SL-16 R/B","OBJECT_ID":"1993-016B","EPOCH":"2026-04-12T06:44:26.759328","MEAN_MOTION":14.15313388,"ECCENTRICITY":0.00126179,"INCLINATION":71.0066,"RA_OF_ASC_NODE":144.6337,"ARG_OF_PERICENTER":271.7581,"MEAN_ANOMALY":88.2096,"EPHEMERIS_TYPE":0,"CLASSIFICATION_TYPE":"U","NORAD_CAT_ID":22566,"ELEMENT_SET_NO":999,"REV_AT_EPOCH":70692,"BSTAR":8.7296741e-5,"MEAN_MOTION_DOT":1.22e-6,"MEAN_MOTION_DDOT":0},{"OBJECT_NAME":"COSMOS 2242","OBJECT_ID":"1993-024A","EPOCH":"2026-04-11T20:45:16.769952","MEAN_MOTION":14.96705121,"ECCENTRICITY":0.0016075,"INCLINATION":82.5187,"RA_OF_ASC_NODE":234.9768,"ARG_OF_PERICENTER":189.0072,"MEAN_ANOMALY":171.0864,"EPHEMERIS_TYPE":0,"CLASSIFICATION_TYPE":"U","NORAD_CAT_ID":22626,"ELEMENT_SET_NO":999,"REV_AT_EPOCH":78535,"BSTAR":0.00014729,"MEAN_MOTION_DOT":1.712e-5,"MEAN_MOTION_DDOT":0}]
