SL-8 R/B                
1 21088U 91006B   26102.10331227  .00000111  00000+0  96384-4 0  9991
2 21088  82.9419 145.2006 0021114 303.5777  85.6365 13.77500408768675
OKEAN-3                 
1 21397U 91039A   26101.99102516  .00001596  00000+0  11032-3 0  9997
2 21397  82.5154 304.5709 0013614 212.6252 147.4135 15.05007157870047
COSMOS 2151             
1 21422U 91042A   26102.30032483  .00001302  00000+0  10180-3 0  9999
2 21422  82.4970  51.2469 0011028 311.9955  48.0329 15.00259400868234
SL-14 R/B               
1 21423U 91042B   26102.18264875  .00000280  00000+0  32389-4 0  9998
2 21423  82.4959 188.7849 0018276 128.2200 232.0663 14.81863751858035
ERS-1                   
1 21574U 91050A   26102.06230802  .00000233  00000+0  89017-4 0  9992
2 21574  98.7849 121.1323 0033128 103.0096 257.4793 14.39476039820536
ARIANE 40 R/B           
1 21610U 91050F   26102.17258111  .00000189  00000+0  69039-4 0  9990
2 21610  98.1945 153.1409 0002606 357.9100   2.2079 14.42918889823827
INTERCOSMOS 25          
1 21819U 91086A   26102.25246838  .00000775  00000+0  14626-3 0  9994
2 21819  82.5994 289.7122 1486043  44.6101 326.5325 12.12110702500753
SL-8 R/B                
1 21876U 92008B   26102.30847631  .00000037  00000+0  22157-4 0  9996
2 21876  82.9257 242.7654 0035440  42.5832 335.9948 13.75970200714040
SL-8 R/B                
1 21938U 92020B   26102.15297082 -.00000017  00000+0 -33133-4 0  9997
2 21938  82.9278 128.9109 0028516 201.7237 222.9758 13.75550223705735
USA 81                  
1 21949U 92023A   26102.12052294  .00000149  00000+0  47867-4 0  9996
2 21949  85.0034 112.1440 0001285  78.9880 281.1457 14.32379209 99574
COSMOS 2219             
1 22219U 92076A   26102.26307865  .00000041  00000+0  46138-4 0  9998
2 22219  71.0591 307.8876 0017438 154.8774 205.3201 14.14088255723125
SL-16 R/B               
1 22220U 92076B   26102.29223442  .00000270  00000+0  15835-3 0  9994
2 22220  70.9976 117.5924 0011337  35.5294 335.8802 14.16864728726595
COSMOS 2221             
1 22236U 92080A   26102.27523989  .00001570  00000+0  13617-3 0  9993
2 22236  82.5025 246.8997 0015651  81.2646 279.0348 14.96352675785819
SL-16 R/B               
1 22285U 92093B   26102.23705645 -.00000205  00000+0 -80675-4 0  9993
2 22285  71.0204 293.8417 0006541 260.5901  99.4482 14.15454165717904
COSMOS 2228             
1 22286U 92094A   26102.26903909  .00001593  00000+0  13448-3 0  9993
2 22286  82.5205 205.1620 0017898 184.5113 175.5952 14.97372515781088
SL-16 R/B               
1 22566U 93016B   26102.28086527  .00000122  00000+0  87297-4 0  9990
2 22566  71.0066 144.6337 0012617 271.7581  88.2096 14.15313388706923
COSMOS 2242             
1 22626U 93024A   26101.86477743  .00001712  00000+0  14729-3 0  9998
2 22626  82.5187 234.9768 0016075 189.0072 171.0864 14.96705121785357
